{"type": "FeatureCollection", "features": [ {"type": "Feature", "properties": {"norad_id": 30096, "name": "FENGYUN 1C DEB", "group": "fengyun-1c-debris", "lat": 64.06141366999074, "lon": -97.65473443958305, "alt_km": 813.106055290421, "timestamp": "2025-12-09T21:34:11.681724+00:00", "meta": {"OBJECT_NAME": "FENGYUN 1C DEB", "OBJECT_ID": "1999-025QZ", "EPOCH": "2025-12-09T10:58:00.806592", "MEAN_MOTION": 14.31682783, "ECCENTRICITY": 0.00790196, "INCLINATION": 99.1481, "RA_OF_ASC_NODE": 62.5332, "ARG_OF_PERICENTER": 241.9898, "MEAN_ANOMALY": 117.3273, "EPHEMERIS_TYPE": 0, "CLASSIFICATION_TYPE": "U", "NORAD_CAT_ID": 30096, "ELEMENT_SET_NO": 999, "REV_AT_EPOCH": 98499, "BSTAR": 0.00057982129, "MEAN_MOTION_DOT": 1.551e-05, "MEAN_MOTION_DDOT": 0}, "tle": {"line1": "1 30096U 99025QZ  25343.45695378  .00001551  00000+0  57982-3 0  9992", "line2": "2 30096  99.1481  62.5332 0079019 241.9898 117.3273 14.31682783984996"}}, "geometry": {"type": "Point", "coordinates": [-97.65473443958305, 64.06141366999074]}}, {"type": "Feature", "properties": {"norad_id": 30099, "name": "FENGYUN 1C DEB", "group": "fengyun-1c-debris", "lat": 54.96286360961835, "lon": 43.90083716808476, "alt_km": 841.9556829058511, "timestamp": "2025-12-09T21:34:11.681734+00:00", "meta": {"OBJECT_NAME": "FENGYUN 1C DEB", "OBJECT_ID": "1999-025RC", "EPOCH": "2025-12-09T11:17:42.368928", "MEAN_MOTION": 14.25930184, "ECCENTRICITY": 0.00609991, "INCLINATION": 98.541, "RA_OF_ASC_NODE": 55.8595, "ARG_OF_PERICENTER": 254.4095, "MEAN_ANOMALY": 124.9109, "EPHEMERIS_TYPE": 0, "CLASSIFICATION_TYPE": "U", "NORAD_CAT_ID": 30099, "ELEMENT_SET_NO": 999, "REV_AT_EPOCH": 98143, "BSTAR": 0.0005266204, "MEAN_MOTION_DOT": 1.236e-05, "MEAN_MOTION_DDOT": 0}, "tle": {"line1": "1 30099U 99025RC  25343.47062927  .00001236  00000+0  52662-3 0  9995", "line2": "2 30099  98.5410  55.8595 0060999 254.4095 124.9109 14.25930184981437"}}, "geometry": {"type": "Point", "coordinates": [43.90083716808476, 54.96286360961835]}}, {"type": "Feature", "properties": {"norad_id": 30102, "name": "FENGYUN 1C DEB", "group": "fengyun-1c-debris", "lat": -79.80669122913179, "lon": 46.871406793704466, "alt_km": 828.8603644271343, "timestamp": "2025-12-09T21:34:11.681745+00:00", "meta": {"OBJECT_NAME": "FENGYUN 1C DEB", "OBJECT_ID": "1999-025RF", "EPOCH": "2025-12-09T06:48:37.328832", "MEAN_MOTION": 14.22122181, "ECCENTRICITY": 0.0141896, "INCLINATION": 98.3792, "RA_OF_ASC_NODE": 351.231, "ARG_OF_PERICENTER": 10.3155, "MEAN_ANOMALY": 0.4529, "EPHEMERIS_TYPE": 0, "CLASSIFICATION_TYPE": "U", "NORAD_CAT_ID": 30102, "ELEMENT_SET_NO": 999, "REV_AT_EPOCH": 97909, "BSTAR": 0.00059459, "MEAN_MOTION_DOT": 1.418e-05, "MEAN_MOTION_DDOT": 0}, "tle": {"line1": "1 30102U 99025RF  25343.28376538  .00001418  00000+0  59459-3 0  9998", "line2": "2 30102  98.3792 351.2310 0141896  10.3155   0.4529 14.22122181979093"}}, "geometry": {"type": "Point", "coordinates": [46.871406793704466, -79.80669122913179]}}, {"type": "Feature", "properties": {"norad_id": 30103, "name": "FENGYUN 1C DEB", "group": "fengyun-1c-debris", "lat": -68.23600477941052, "lon": 121.15412311936058, "alt_km": 840.5872841622304, "timestamp": "2025-12-09T21:34:11.681755+00:00", "meta": {"OBJECT_NAME": "FENGYUN 1C DEB", "OBJECT_ID": "1999-025RG", "EPOCH": "2025-12-09T10:53:38.948928", "MEAN_MOTION": 14.24848137, "ECCENTRICITY": 0.00640392, "INCLINATION": 99.2446, "RA_OF_ASC_NODE": 324.7616, "ARG_OF_PERICENTER": 129.16, "MEAN_ANOMALY": 359.9562, "EPHEMERIS_TYPE": 0, "CLASSIFICATION_TYPE": "U", "NORAD_CAT_ID": 30103, "ELEMENT_SET_NO": 999, "REV_AT_EPOCH": 97872, "BSTAR": 0.00071805953, "MEAN_MOTION_DOT": 1.664e-05, "MEAN_MOTION_DDOT": 0}, "tle": {"line1": "1 30103U 99025RG  25343.45392302  .00001664  00000+0  71806-3 0  9998", "line2": "2 30103  99.2446 324.7616 0064039 129.1600 359.9562 14.24848137978727"}}, "geometry": {"type": "Point", "coordinates": [121.15412311936058, -68.23600477941052]}}, {"type": "Feature", "properties": {"norad_id": 30104, "name": "FENGYUN 1C DEB", "group": "fengyun-1c-debris", "lat": 81.38660056207287, "lon": 104.99302772958583, "alt_km": 752.0931868114194, "timestamp": "2025-12-09T21:34:11.681765+00:00", "meta": {"OBJECT_NAME": "FENGYUN 1C DEB", "OBJECT_ID": "1999-025RH", "EPOCH": "2025-12-09T12:59:42.586368", "MEAN_MOTION": 14.25650805, "ECCENTRICITY": 0.00739294, "INCLINATION": 98.3596, "RA_OF_ASC_NODE": 180.7548, "ARG_OF_PERICENTER": 117.5473, "MEAN_ANOMALY": 298.1565, "EPHEMERIS_TYPE": 0, "CLASSIFICATION_TYPE": "U", "NORAD_CAT_ID": 30104, "ELEMENT_SET_NO": 999, "REV_AT_EPOCH": 97847, "BSTAR": 0.001082589, "MEAN_MOTION_DOT": 2.6e-05, "MEAN_MOTION_DDOT": 0}, "tle": {"line1": "1 30104U 99025RH  25343.54146512  .00002600  00000+0  10826-2 0  9994", "line2": "2 30104  98.3596 180.7548 0073929 117.5473 298.1565 14.25650805978478"}}, "geometry": {"type": "Point", "coordinates": [104.99302772958583, 81.38660056207287]}}, {"type": "Feature", "properties": {"norad_id": 30105, "name": "FENGYUN 1C DEB", "group": "fengyun-1c-debris", "lat": -60.379511572452806, "lon": 134.59302729455726, "alt_km": 962.0368584413172, "timestamp": "2025-12-09T21:34:11.681776+00:00", "meta": {"OBJECT_NAME": "FENGYUN 1C DEB", "OBJECT_ID": "1999-025RJ", "EPOCH": "2025-12-09T10:18:54.123840", "MEAN_MOTION": 14.21390313, "ECCENTRICITY": 0.01998322, "INCLINATION": 98.5935, "RA_OF_ASC_NODE": 329.5607, "ARG_OF_PERICENTER": 83.5036, "MEAN_ANOMALY": 278.885, "EPHEMERIS_TYPE": 0, "CLASSIFICATION_TYPE": "U", "NORAD_CAT_ID": 30105, "ELEMENT_SET_NO": 999, "REV_AT_EPOCH": 97715, "BSTAR": 0.00052189538, "MEAN_MOTION_DOT": 1.352e-05, "MEAN_MOTION_DDOT": 0}, "tle": {"line1": "1 30105U 99025RJ  25343.42979310  .00001352  00000+0  52190-3 0  9996", "line2": "2 30105  98.5935 329.5607 0199832  83.5036 278.8850 14.21390313977153"}}, "geometry": {"type": "Point", "coordinates": [134.59302729455726, -60.379511572452806]}}, {"type": "Feature", "properties": {"norad_id": 30106, "name": "FENGYUN 1C DEB", "group": "fengyun-1c-debris", "lat": -63.7594565406108, "lon": -90.51067566763842, "alt_km": 619.6146349857918, "timestamp": "2025-12-09T21:34:11.681786+00:00", "meta": {"OBJECT_NAME": "FENGYUN 1C DEB", "OBJECT_ID": "1999-025RK", "EPOCH": "2025-12-09T07:52:58.377216", "MEAN_MOTION": 14.84724281, "ECCENTRICITY": 0.0047294, "INCLINATION": 98.9232, "RA_OF_ASC_NODE": 250.2651, "ARG_OF_PERICENTER": 209.5233, "MEAN_ANOMALY": 278.2958, "EPHEMERIS_TYPE": 0, "CLASSIFICATION_TYPE": "U", "NORAD_CAT_ID": 30106, "ELEMENT_SET_NO": 999, "REV_AT_EPOCH": 98494, "BSTAR": 0.0063092, "MEAN_MOTION_DOT": 0.00054869, "MEAN_MOTION_DDOT": 0}, "tle": {"line1": "1 30106U 99025RK  25343.32845344  .00054869  00000+0  63092-2 0  9998", "line2": "2 30106  98.9232 250.2651 0047294 209.5233 278.2958 14.84724281984942"}}, "geometry": {"type": "Point", "coordinates": [-90.51067566763842, -63.7594565406108]}}, {"type": "Feature", "properties": {"norad_id": 30107, "name": "FENGYUN 1C DEB", "group": "fengyun-1c-debris", "lat": -38.68659184135175, "lon": -146.32066346657916, "alt_km": 810.6575615229185, "timestamp": "2025-12-09T21:34:11.681796+00:00", "meta": {"OBJECT_NAME": "FENGYUN 1C DEB", "OBJECT_ID": "1999-025RL", "EPOCH": "2025-12-09T15:25:51.510720", "MEAN_MOTION": 14.14419826, "ECCENTRICITY": 0.01262724, "INCLINATION": 98.8473, "RA_OF_ASC_NODE": 40.5906, "ARG_OF_PERICENTER": 284.5008, "MEAN_ANOMALY": 74.2185, "EPHEMERIS_TYPE": 0, "CLASSIFICATION_TYPE": "U", "NORAD_CAT_ID": 30107, "ELEMENT_SET_NO": 999, "REV_AT_EPOCH": 97517, "BSTAR": 0.00018996891, "MEAN_MOTION_DOT": 3.47e-06, "MEAN_MOTION_DDOT": 0}, "tle": {"line1": "1 30107U 99025RL  25343.64295730  .00000347  00000+0  18997-3 0  9999", "line2": "2 30107  98.8473  40.5906 0126272 284.5008  74.2185 14.14419826975179"}}, "geometry": {"type": "Point", "coordinates": [-146.32066346657916, -38.68659184135175]}}, {"type": "Feature", "properties": {"norad_id": 30108, "name": "FENGYUN 1C DEB", "group": "fengyun-1c-debris", "lat": 78.28525903581794, "lon": -162.8730181098316, "alt_km": 770.8375121315958, "timestamp": "2025-12-09T21:34:11.681807+00:00", "meta": {"OBJECT_NAME": "FENGYUN 1C DEB", "OBJECT_ID": "1999-025RM", "EPOCH": "2025-12-08T23:24:48.777120", "MEAN_MOTION": 14.1716056, "ECCENTRICITY": 0.0197812, "INCLINATION": 98.6597, "RA_OF_ASC_NODE": 328.924, "ARG_OF_PERICENTER": 32.9562, "MEAN_ANOMALY": 35.6399, "EPHEMERIS_TYPE": 0, "CLASSIFICATION_TYPE": "U", "NORAD_CAT_ID": 30108, "ELEMENT_SET_NO": 999, "REV_AT_EPOCH": 97545, "BSTAR": 0.00052508, "MEAN_MOTION_DOT": 1.239e-05, "MEAN_MOTION_DDOT": 0}, "tle": {"line1": "1 30108U 99025RM  25342.97556455  .00001239  00000+0  52508-3 0  9996", "line2": "2 30108  98.6597 328.9240 0197812  32.9562  35.6399 14.17160560975457"}}, "geometry": {"type": "Point", "coordinates": [-162.8730181098316, 78.28525903581794]}}, {"type": "Feature", "properties": {"norad_id": 30109, "name": "FENGYUN 1C DEB", "group": "fengyun-1c-debris", "lat": -21.579989316624573, "lon": 154.13485281078684, "alt_km": 744.3420757326485, "timestamp": "2025-12-09T21:34:11.681817+00:00", "meta": {"OBJECT_NAME": "FENGYUN 1C DEB", "OBJECT_ID": "1999-025RN", "EPOCH": "2025-12-09T12:43:05.527776", "MEAN_MOTION": 14.17541499, "ECCENTRICITY": 0.0167199, "INCLINATION": 98.5077, "RA_OF_ASC_NODE": 337.1756, "ARG_OF_PERICENTER": 241.7226, "MEAN_ANOMALY": 240.1028, "EPHEMERIS_TYPE": 0, "CLASSIFICATION_TYPE": "U", "NORAD_CAT_ID": 30109, "ELEMENT_SET_NO": 999, "REV_AT_EPOCH": 97506, "BSTAR": 0.00064960024, "MEAN_MOTION_DOT": 1.47e-05, "MEAN_MOTION_DDOT": 0}, "tle": {"line1": "1 30109U 99025RN  25343.52992509  .00001470  00000+0  64960-3 0  9995", "line2": "2 30109  98.5077 337.1756 0167199 241.7226 240.1028 14.17541499975069"}}, "geometry": {"type": "Point", "coordinates": [154.13485281078684, -21.579989316624573]}}]}